NORAD_CAT_ID,OBJECT_NAME,OBJECT_TYPE,EPOCH,MEAN_MOTION,ECCENTRICITY,INCLINATION,RA_OF_ASC_NODE,ARG_OF_PERICENTER,MEAN_ANOMALY,BSTAR,MEAN_MOTION_DOT,MEAN_MOTION_DDOT,TLE_LINE0,TLE_LINE1,TLE_LINE2,SEMIMAJOR_AXIS,PERIOD,APOGEE,PERIGEE,DECAYED
55951.0,STARLINK-5908,PAYLOAD,2023-12-13 22:35:07,14.98330361,0.0002386,69.9985,183.5864,262.4309,97.6579,-4.5332e-05,-6.34e-06,0.0,0 STARLINK-5908,1 55951U 23037AP  23347.94106273 -.00000634  00000-0 -45332-4 0  9997,2 55951  69.9985 183.5864 0002386 262.4309  97.6579 14.98330361 41649,6950.192,96.107,573.715,570.398,0.0
55951.0,STARLINK-5908,PAYLOAD,2023-12-14 14:36:28,14.98326165,0.0002585,69.9979,181.9019,270.2864,89.7999,-6.1763e-06,-1.67e-06,0.0,0 STARLINK-5908,1 55951U 23037AP  23348.60866477 -.00000167  00000-0 -61763-5 0  9998,2 55951  69.9979 181.9019 0002585 270.2864  89.7999 14.98326165 41746,6950.205,96.107,573.866,570.273,0.0
55951.0,STARLINK-5908,PAYLOAD,2023-12-14 21:01:00,14.98328678,0.0002567,69.9978,181.2286,268.8805,91.206,2.2108e-05,1.71e-06,0.0,0 STARLINK-5908,1 55951U 23037AP  23348.87570276  .00000171  00000-0  22108-4 0  9998,2 55951  69.9978 181.2286 0002567 268.8805  91.2060 14.98328678 42123,6950.197,96.107,573.846,570.278,0.0
55951.0,STARLINK-5908,PAYLOAD,2023-12-15 14:38:29,14.98329045,0.0002569,69.9977,179.3769,268.6691,91.4174,7.8665e-06,1e-08,0.0,0 STARLINK-5908,1 55951U 23037AP  23349.61006341  .00000001  00000-0  78665-5 0  9990,2 55951  69.9977 179.3769 0002569 268.6691  91.4174 14.98329045 41899,6950.196,96.107,573.846,570.275,0.0
55951.0,STARLINK-5908,PAYLOAD,2023-12-15 22:39:09,14.98330316,0.0002552,69.9978,178.5353,268.2069,91.8798,2.2429e-05,1.75e-06,0.0,0 STARLINK-5908,1 55951U 23037AP  23349.94386219  .00000175  00000-0  22429-4 0  9999,2 55951  69.9978 178.5353 0002552 268.2069  91.8798 14.98330316 41942,6950.192,96.107,573.831,570.283,0.0
55951.0,STARLINK-5908,PAYLOAD,2023-12-16 14:40:30,14.98333463,0.0002589,69.9976,176.8519,268.9791,91.1071,4.3561e-05,4.27e-06,0.0,0 STARLINK-5908,1 55951U 23037AP  23350.61145905  .00000427  00000-0  43561-4 0  9990,2 55951  69.9976 176.8519 0002589 268.9791  91.1071 14.98333463 42049,6950.182,96.107,573.847,570.248,0.0
55951.0,STARLINK-5908,PAYLOAD,2023-12-16 19:28:54,14.98334055,0.0002586,69.9978,176.347,269.718,90.3683,4.8616e-05,4.87e-06,0.0,0 STARLINK-5908,1 55951U 23037AP  23350.81173811  .00000487  00000-0  48616-4 0  9991,2 55951  69.9978 176.3470 0002586 269.7180  90.3683 14.98334055 42071,6950.18,96.107,573.843,570.248,0.0
55951.0,STARLINK-5908,PAYLOAD,2023-12-16 22:41:10,14.98335373,0.0002568,69.9978,176.0106,269.1849,90.9016,6.0815e-05,6.33e-06,0.0,0 STARLINK-5908,1 55951U 23037AP  23350.94525639  .00000633  00000-0  60815-4 0  9992,2 55951  69.9978 176.0106 0002568 269.1849  90.9016 14.98335373 42430,6950.176,96.107,573.826,570.256,0.0
55951.0,STARLINK-5908,PAYLOAD,2023-12-17 14:42:31,14.9832825,0.0002426,69.9983,174.3274,273.7859,86.3022,-1.7451e-05,-3.01e-06,0.0,0 STARLINK-5908,1 55951U 23037AP  23351.61286286 -.00000301  00000-0 -17451-4 0  9991,2 55951  69.9983 174.3274 0002426 273.7859  86.3022 14.98328250 42193,6950.198,96.107,573.749,570.377,0.0
55951.0,STARLINK-5908,PAYLOAD,2023-12-17 19:30:55,14.98328468,0.0002416,69.9982,173.8224,272.7552,87.333,-1.3986e-05,-2.6e-06,0.0,0 STARLINK-5908,1 55951U 23037AP  23351.81314266 -.00000260  00000-0 -13986-4 0  9996,2 55951  69.9982 173.8224 0002416 272.7552  87.3330 14.98328468 42564,6950.198,96.107,573.742,570.383,0.0
55951.0,STARLINK-5908,PAYLOAD,2023-12-17 21:07:03,14.98328812,0.0002412,69.9982,173.6542,272.7335,87.3548,-9.8045e-06,-2.1e-06,0.0,0 STARLINK-5908,1 55951U 23037AP  23351.87990244 -.00000210  00000-0 -98045-5 0  9993,2 55951  69.9982 173.6542 0002412 272.7335  87.3548 14.98328812 42238,6950.197,96.107,573.738,570.385,0.0
55951.0,STARLINK-5908,PAYLOAD,2023-12-18 14:44:31,14.98334554,0.0002346,69.9984,171.8034,266.1887,93.9004,-7.5804e-06,-1.83e-06,0.0,0 STARLINK-5908,1 55951U 23037AP  23352.61425729 -.00000183  00000-0 -75804-5 0  9994,2 55951  69.9984 171.8034 0002346 266.1887  93.9004 14.98334554 42343,6950.179,96.107,573.674,570.413,0.0
55951.0,STARLINK-5908,PAYLOAD,2023-12-18 19:32:55,14.98337052,0.0002246,69.9982,171.2985,264.1028,95.9875,-5.6969e-05,-7.73e-06,0.0,0 STARLINK-5908,1 55951U 23037AP  23352.81453662 -.00000773  00000-0 -56969-4 0  9998,2 55951  69.9982 171.2985 0002246 264.1028  95.9875 14.98337052 42719,6950.171,96.107,573.597,570.475,0.0
55951.0,STARLINK-5908,PAYLOAD,2023-12-18 21:09:04,14.98334155,0.0002363,69.9985,171.1304,267.6896,92.3992,-9.7276e-06,-2.09e-06,0.0,0 STARLINK-5908,1 55951U 23037AP  23352.88129703 -.00000209  00000-0 -97276-5 0  9992,2 55951  69.9985 171.1304 0002363 267.6896  92.3992 14.98334155 42382,6950.18,96.107,573.687,570.403,0.0
55951.0,STARLINK-5908,PAYLOAD,2023-12-19 14:46:32,14.98328812,0.00024,69.9984,169.2787,267.9663,92.1221,2.113e-05,1.59e-06,0.0,0 STARLINK-5908,1 55951U 23037AP  23353.61565872  .00000159  00000-0  21130-4 0  9992,2 55951  69.9984 169.2787 0002400 267.9663  92.1221 14.98328812 42499,6950.197,96.107,573.73,570.394,0.0
55951.0,STARLINK-5908,PAYLOAD,2023-12-19 19:34:57,14.98327853,0.0002435,69.9985,168.7739,269.598,90.49,7.3299e-06,-5e-08,0.0,0 STARLINK-5908,1 55951U 23037AP  23353.81593991 -.00000005  00000-0  73299-5 0  9992,2 55951  69.9985 168.7739 0002435 269.5980  90.4900 14.98327853 42869,6950.2,96.107,573.757,570.372,0.0
55951.0,STARLINK-5908,PAYLOAD,2023-12-20 13:12:26,14.98326895,0.0002305,69.9991,166.9235,261.7125,98.3773,-4.9578e-05,-6.84e-06,0.0,0 STARLINK-5908,1 55951U 23037AP  23354.55030292 -.00000684  00000-0 -49578-4 0  9990,2 55951  69.9991 166.9235 0002305 261.7125  98.3773 14.98326895 42633,6950.202,96.107,573.67,570.465,0.0
55951.0,STARLINK-5908,PAYLOAD,2023-12-20 19:36:58,14.98325312,0.0002336,69.9992,166.2504,262.325,97.7644,-6.5161e-05,-8.7e-06,0.0,0 STARLINK-5908,1 55951U 23037AP  23354.81734494 -.00000870  00000-0 -65161-4 0  9997,2 55951  69.9992 166.2504 0002336 262.3250  97.7644 14.98325312 43012,6950.207,96.107,573.696,570.449,0.0
55951.0,STARLINK-5908,PAYLOAD,2023-12-20 21:13:06,14.98325526,0.0002348,69.9992,166.082,263.4971,96.5921,-6.2046e-05,-8.33e-06,0.0,0 STARLINK-5908,1 55951U 23037AP  23354.88410497 -.00000833  00000-0 -62046-4 0  9996,2 55951  69.9992 166.0820 0002348 263.4971  96.5921 14.98325526 42680,6950.207,96.107,573.704,570.44,0.0
55951.0,STARLINK-5908,PAYLOAD,2023-12-21 14:50:34,14.98329924,0.0002529,69.9988,164.2299,269.3889,90.698,2.3663e-05,1.89e-06,0.0,0 STARLINK-5908,1 55951U 23037AP  23355.61846055  .00000189  00000-0  23663-4 0  9995,2 55951  69.9988 164.2299 0002529 269.3889  90.6980 14.98329924 42797,6950.193,96.107,573.816,570.3,0.0
55951.0,STARLINK-5908,PAYLOAD,2023-12-21 21:15:07,14.98331667,0.0002499,69.999,163.557,268.6424,91.4448,4.3869e-05,4.31e-06,0.0,0 STARLINK-5908,1 55951U 23037AP  23355.88549887  .00000431  00000-0  43869-4 0  9997,2 55951  69.9990 163.5570 0002499 268.6424  91.4448 14.98331667 42837,6950.188,96.107,573.79,570.316,0.0
55951.0,STARLINK-5908,PAYLOAD,2023-12-22 14:52:35,14.98333099,0.0002625,69.9989,161.7055,269.2793,90.8065,9.569e-05,1.049e-05,0.0,0 STARLINK-5908,1 55951U 23037AP  23356.61985567  .00001049  00000-0  95690-4 0  9993,2 55951  69.9989 161.7055 0002625 269.2793  90.8065 14.98333099 42941,6950.183,96.107,573.873,570.224,0.0
55951.0,STARLINK-5908,PAYLOAD,2023-12-22 19:40:59,14.98334933,0.0002584,69.999,161.2007,268.5672,91.5191,0.00011357,1.263e-05,0.0,0 STARLINK-5908,1 55951U 23037AP  23356.82013350  .00001263  00000-0  11357-3 0  9993,2 55951  69.9990 161.2007 0002584 268.5672  91.5191 14.98334933 43315,6950.178,96.107,573.839,570.247,0.0
55951.0,STARLINK-5908,PAYLOAD,2023-12-22 21:17:07,14.98335339,0.0002588,69.999,161.0325,268.8475,91.2387,0.00011517,1.282e-05,0.0,0 STARLINK-5908,1 55951U 23037AP  23356.88689295  .00001282  00000-0  11517-3 0  9995,2 55951  69.9990 161.0325 0002588 268.8475  91.2387 14.98335339 42981,6950.176,96.107,573.84,570.243,0.0
55951.0,STARLINK-5908,PAYLOAD,2023-12-23 11:42:20,14.98330584,0.0002358,69.9996,159.5179,268.9404,91.1485,-7.3391e-06,-1.8e-06,0.0,0 STARLINK-5908,1 55951U 23037AP  23357.48773855 -.00000180  00000-0 -73391-5 0  9996,2 55951  69.9996 159.5179 0002358 268.9404  91.1485 14.98330584 43418,6950.191,96.107,573.695,570.417,0.0
55951.0,STARLINK-5908,PAYLOAD,2023-12-23 14:54:36,14.98330248,0.0002377,69.9996,159.1813,265.1155,94.9732,-1.3235e-05,-2.51e-06,0.0,0 STARLINK-5908,1 55951U 23037AP  23357.62125852 -.00000251  00000-0 -13235-4 0  9999,2 55951  69.9996 159.1813 0002377 265.1155  94.9732 14.98330248 43099,6950.192,96.107,573.709,570.405,0.0
55951.0,STARLINK-5908,PAYLOAD,2023-12-23 21:19:09,14.98329754,0.0002406,69.9996,158.5081,266.5426,93.5457,-2.0957e-05,-3.43e-06,0.0,0 STARLINK-5908,1 55951U 23037AP  23357.88829897 -.00000343  00000-0 -20957-4 0  9998,2 55951  69.9996 158.5081 0002406 266.5426  93.5457 14.98329754 43132,6950.194,96.107,573.731,570.386,0.0
55951.0,STARLINK-5908,PAYLOAD,2023-12-24 11:44:21,14.98336244,0.0002441,69.9995,156.9931,266.9522,93.1358,-1.3131e-05,-2.5e-06,0.0,0 STARLINK-5908,1 55951U 23037AP  23358.48913308 -.00000250  00000-0 -13131-4 0  9999,2 55951  69.9995 156.9931 0002441 266.9522  93.1358 14.98336244 43562,6950.174,96.107,573.735,570.342,0.0
55951.0,STARLINK-5908,PAYLOAD,2023-12-24 14:56:37,14.98336081,0.000245,69.9996,156.6565,266.1702,93.9177,-1.3871e-05,-2.58e-06,0.0,0 STARLINK-5908,1 55951U 23037AP  23358.62265256 -.00000258  00000-0 -13871-4 0  9996,2 55951  69.9996 156.6565 0002450 266.1702  93.9177 14.98336081 43246,6950.174,96.107,573.742,570.336,0.0
55951.0,STARLINK-5908,PAYLOAD,2023-12-24 19:45:01,14.9833625,0.0002451,69.9996,156.1516,266.5429,93.5449,-1.0159e-05,-2.14e-06,0.0,0 STARLINK-5908,1 55951U 23037AP  23358.82293162 -.00000214  00000-0 -10159-4 0  9993,2 55951  69.9996 156.1516 0002451 266.5429  93.5449 14.98336250 43277,6950.174,96.107,573.742,570.335,0.0
